OPTICUBE 04             
1 41851U 16067D   19199.16135295  .00000541  00000-0  52495-4 0  9999
2 41851  97.9182 297.1301 0007214 290.7286  69.3161 14.96815289146323
AEROCUBE 8D             
1 41852U 16067E   19199.70069687  .00000284  00000-0  30161-4 0  9991
2 41852  97.9195 297.5013 0007989 288.7758  71.2596 14.96730088146385
AEROCUBE 8C             
1 41853U 16067F   19199.25631996 -.00000328  00000-0 -23365-4 0  9999
2 41853  97.9185 296.9859 0008825 291.0054  69.0222 14.96688898146317
PROMETHEUS 2-1          
1 41854U 16067G   19199.21939685  .00000775  00000-0  72782-4 0  9993
2 41854  97.9196 297.0951 0008617 289.4690  70.5600 14.96912104146318
PROMETHEUS 2-3          
1 41855U 16067H   19199.22163679  .00000801  00000-0  75022-4 0  9997
2 41855  97.9199 297.1144 0008770 290.0441  69.9835 14.96918086146316
INS-1B                  
1 41954U 17008G   19199.23987184  .00000737  00000-0  33324-4 0  9996
2 41954  97.3983 263.8929 0010417  49.4452 310.7691 15.23992630134302
BGUSAT                  
1 41999U 17008BD  19199.18187488  .00001272  00000-0  51957-4 0  9995
2 41999  97.4060 266.3283 0009672  62.4102 297.8118 15.26188256133792
DIDO-2                  
1 42000U 17008BE  19198.77039348  .00000550  00000-0  25652-4 0  9995
2 42000  97.3995 263.9784 0010099  67.3593 292.8712 15.23928650133639
PEASSS                  
1 42015U 17008BV  19199.24070792  .00000667  00000-0  29687-4 0  9993
2 42015  97.4005 265.4444 0008028  71.7082 288.5029 15.24901018134251
AL-FARABI 1             
1 42016U 17008BW  19199.42400353  .00000860  00000-0  36744-4 0  9991
2 42016  97.4020 266.2001 0007857  70.6523 289.5564 15.25545756134433
NAYIF-1 (EO-88)         
1 42017U 17008BX  19199.14850345  .00000878  00000-0  37390-4 0  9998
2 42017  97.4017 265.9378 0007837  71.6917 288.5173 15.25578560134411
ALTAIR PATHFINDER       
1 42711U 98067LS  19199.41853597  .00028128  00000-0  13437-3 0  9998
2 42711  51.6337 135.3900 0000358 232.8831 127.2139 15.82572387123791
NJUST-1                 
1 42722U 98067MB  19198.77980559  .01169333  11957-4  41913-3 0  9999
2 42722  51.6285 111.0055 0006091 249.8533 145.2929 16.24151476123127
NSIGHT                  
1 42726U 98067MF  19199.46561898  .00014216  00000-0  10952-3 0  9991
2 42726  51.6350 156.3123 0003565 300.9653  59.0994 15.72278286122503
UCLSAT                  
1 42765U 17036A   19198.84493190  .00000706  00000-0  33122-4 0  9995
2 42765  97.3491 256.2299 0013000 123.0114 237.2374 15.22779721114906
LITUANICASAT-2          
1 42768U 17036D   19199.15121182  .00001266  00000-0  56854-4 0  9991
2 42768  97.3527 256.1473 0016797 114.3511 245.9481 15.22859466114799
AALTO-1                 
1 42775U 17036L   19199.39210475  .00000477  00000-0  24261-4 0  9999
2 42775  97.3475 255.4457 0015614 113.7238 246.5638 15.21363530114724
URSA MAIOR              
1 42776U 17036M   19198.62683972  .00000539  00000-0  26931-4 0  9996
2 42776  97.3485 254.8556 0015425 116.1141 244.1684 15.21497380114613
COMPASS 2               
1 42777U 17036N   19198.77344995  .00001089  00000-0  49254-4 0  9996
2 42777  97.3525 256.2404 0014199 116.1385 244.1314 15.22942836114694
DIAMOND RED             
1 42783U 17036U   19198.90063768  .00000611  00000-0  29534-4 0  9993
2 42783  97.3492 255.8629 0013663 124.0739 236.1796 15.22231311114698
PEGASUS                 
1 42784U 17036V   19198.74266630  .00000709  00000-0  33506-4 0  9991
2 42784  97.3496 255.9417 0013527 124.0392 236.2131 15.22527107114687
DIAMOND GREEN           
1 42785U 17036W   19198.63648610  .00000632  00000-0  30446-4 0  9997
2 42785  97.3494 255.6295 0013535 125.3848 234.8655 15.22231678114642
DIAMOND BLUE            
1 42786U 17036X   19198.83283708  .00000608  00000-0  29385-4 0  9996
2 42786  97.3494 255.8195 0013386 124.9443 235.3052 15.22229220114685
NUDTSAT                 
1 42787U 17036Y   19199.11624600  .00001184  00000-0  52478-4 0  9998
2 42787  97.3522 257.0314 0011736 116.9638 243.2800 15.23505474114621
SUCHAI                  
1 42788U 17036Z   19198.74184292  .00000853  00000-0  39213-4 0  9999
2 42788  97.3501 256.2590 0013123 123.1543 237.0955 15.22948248114770
SKCUBE                  
1 42789U 17036AA  19198.82523056  .00000768  00000-0  35694-4 0  9998
2 42789  97.3496 256.2780 0013006 122.9748 237.2741 15.22845894114700
VZLUSAT-1               
1 42790U 17036AB  19198.84037803  .00000967  00000-0  43392-4 0  9997
2 42790  97.3512 256.7648 0012603 121.9892 238.2572 15.23502292114739
ROBUSTA-1B              
1 42792U 17036AD  19199.14713135  .00000803  00000-0  37016-4 0  9997
2 42792  97.3497 256.7478 0012574 122.4475 237.7980 15.23014431114778
CICERO 6                
1 42793U 17036AE  19199.14897187  .00000534  00000-0  25914-4 0  9993
2 42793  97.3480 256.5127 0011789 123.7233 236.5129 15.22602928114835
D-SAT                   
1 42794U 17036AF  19199.60299319  .00000226  00000-0  24907-4 0  9997
2 42794  97.5372 242.9858 0127559  42.5539 318.5480 14.91108567112797
CORVUS BC2              
1 42846U 17042X   19199.25557677  .00000231  00000-0  28111-4 0  9994
2 42846  97.5625  92.0753 0008688 324.6479  35.4163 14.91981338109426
CORVUS BC1              
1 42847U 17042Y   19199.13976856  .00000001  00000-0  53734-5 0  9991
2 42847  97.5627  92.0754 0008313 324.8955  35.1716 14.92081762109408
MIRATA                  
1 43015U 17073C   19199.72394160  .00000915  00000-0  75895-4 0  9995
2 43015  97.7187 119.7673 0256783  60.0743 302.5704 14.79011447 89735
MAKERSAT 0              
1 43016U 17073D   19199.33705332  .00000626  00000-0  53491-4 0  9997
2 43016  97.7221 119.5965 0258937  61.7304 300.9779 14.78756372 89669
ASTERIA                 
1 43020U 98067NH  19199.31124907  .00011089  00000-0  89553-4 0  9998
2 43020  51.6416 168.2609 0000869 228.8378 131.2545 15.71432495 94518
DELLINGR (RBLE)         
1 43021U 98067NJ  19199.43633352  .00005039  00000-0  59148-4 0  9996
2 43021  51.6368 181.7402 0001543 204.8865 155.2055 15.63464691 94348
AEROCUBE 7B (OCSD B)    
1 43042U 17071F   19198.68243401  .00001479  00000-0  44604-4 0  9998
2 43042  51.6394 271.1743 0004161 259.0168 101.0350 15.41315772 90556
AEROCUBE 7C (OCSD C)    
1 43043U 17071G   19199.65498286  .00001442  00000-0  43711-4 0  9998
2 43043  51.6394 266.4325 0004397 267.6951  92.3531 15.41319540 90679
CHEFSAT                 
1 43044U 17071H   19199.59341809  .00003189  00000-0  77814-4 0  9991
2 43044  51.6380 260.8973 0004304 266.5025  93.5469 15.44027976 90743
ASGARDIA 1              
1 43049U 17071N   19199.60451517  .00001409  00000-0  42746-4 0  9995
2 43049  51.6402 266.1276 0001947 287.9264  72.1509 15.41441130 90668
ISARA                   
1 43050U 17071P   19198.77709519  .00002767  00000-0  69817-4 0  9998
2 43050  51.6377 265.9007 0001858 282.0096  78.0682 15.43533731 90590
PROPCUBE 2 (FAUNA)      
1 43052U 17071R   19199.21584849  .00001555  00000-0  45763-4 0  9995
2 43052  51.6400 267.3004 0001880 281.2313  78.8461 15.41725636 90611
CORVUS BC3              
1 43118U 18004H   19199.17446985  .00000454  00000-0  22428-4 0  9998
2 43118  97.4851 266.4331 0011474 141.7479 218.4573 15.22870725 83963
MICROMAS-2A             
1 43131U 18004W   19199.61547529  .00001040  00000-0  45630-4 0  9990
2 43131  97.4878 267.6282 0010512 141.0344 219.1652 15.24179860 84074
CICERO 7                
1 43143U 18004AJ  19199.43935257  .00000941  00000-0  41465-4 0  9993
2 43143  97.4864 267.6671 0008425 148.2446 211.9301 15.24306728 84061
GOMX-4B                 
1 43196U 18015E   19198.92323965  .00000275  00000-0  14283-4 0  9991
2 43196  97.3938 326.0561 0018071 202.0503 157.9928 15.23963914 80794
GOMX-4A                 
1 43197U 18015F   19199.77604681  .00000358  00000-0  17635-4 0  9999
2 43197  97.3961 326.9251 0018569 198.1932 268.0806 15.24059367 80933
1KUNS-PF                
1 43466U 98067NP  19199.38537343  .00012999  00000-0  12471-3 0  9996
2 43466  51.6354 183.6168 0000497  34.9529 325.1500 15.67009284 67577
UBAKUSAT                
1 43467U 98067NQ  19199.39793744  .00007019  00000-0  80652-4 0  9991
2 43467  51.6355 188.2041 0001775 164.6334 195.4715 15.63291941 67525
BATSU-CS1 (IRAZU)       
1 43468U 98067NR  19198.42699850  .00019578  00000-0  16282-3 0  9998
2 43468  51.6342 184.6865 0000967  29.1443 330.9608 15.70153958167468
CUBERRT                 
1 43546U 98067NU  19199.45757919  .00008243  00000-0  85771-4 0  9997
2 43546  51.6364 188.6011 0003439 253.9484 106.1133 15.65571090 57655
TEMPEST-D               
1 43547U 98067NV  19199.16770611  .00002061  00000-0  33349-4 0  9996
2 43547  51.6370 198.6684 0005064 234.3195 125.7326 15.58198614 57175
RAINCUBE                
1 43548U 98067NW  19199.16304785  .00007535  00000-0  90758-4 0  9990
2 43548  51.6349 194.1197 0004514 249.2733 110.7777 15.61926532 57686
HALOSAT                 
1 43549U 98067NX  19199.16783950  .00004983  00000-0  62249-4 0  9994
2 43549  51.6361 194.1651 0004570 252.5566 107.4928 15.61850128 57249
ENDUROSAT ONE           
1 43551U 98067NZ  19198.52059022  .00010402  00000-0  11579-3 0  9994
2 43551  51.6355 195.0952 0004710 260.9511  99.0951 15.63490981 57586
EQUISAT                 
1 43552U 98067PA  19198.46018976  .00008483  00000-0  10051-3 0  9991
2 43552  51.6367 196.9654 0005135 257.2672 102.7748 15.62159863 57517
AEROCUBE 12A            
1 43556U 18046C   19198.67666246  .00000507  00000-0  30505-4 0  9992
2 43556  51.6429 277.6120 0008513 170.8159 189.2978 15.28775574 55998
AEROCUBE 12B            
1 43557U 18046D   19199.67327071  .00001030  00000-0  49105-4 0  9992
2 43557  51.6426 273.0113 0008537 174.7378 185.3693 15.28641355 56092
UITMSAT-1               
1 43589U 98067PD  19199.16465100  .00008786  00000-0  10321-3 0  9990
2 43589  51.6343 194.1122 0004532 270.7781  89.2694 15.62331118 53354
